{"type": "FeatureCollection", "features": [ {"type": "Feature", "properties": {"norad_id": 31955, "name": "FENGYUN 1C DEB", "group": "fengyun-1c-debris", "lat": -76.30187764380102, "lon": -102.57214446830884, "alt_km": 680.9819107438307, "timestamp": "2025-12-05T09:41:19.415045+00:00", "meta": {"OBJECT_NAME": "FENGYUN 1C DEB", "OBJECT_ID": "1999-025CNG", "EPOCH": "2025-12-04T10:15:55.992960", "MEAN_MOTION": 14.6366114, "ECCENTRICITY": 0.0043225, "INCLINATION": 99.2809, "RA_OF_ASC_NODE": 214.1942, "ARG_OF_PERICENTER": 207.1479, "MEAN_ANOMALY": 332.853, "EPHEMERIS_TYPE": 0, "CLASSIFICATION_TYPE": "U", "NORAD_CAT_ID": 31955, "ELEMENT_SET_NO": 999, "REV_AT_EPOCH": 96435, "BSTAR": 0.0045868, "MEAN_MOTION_DOT": 0.00024204, "MEAN_MOTION_DDOT": 0}, "tle": {"line1": "1 31955U 99025CNG 25338.42773140  .00024204  00000+0  45868-2 0  9991", "line2": "2 31955  99.2809 214.1942 0043225 207.1479 332.8530 14.63661140964354"}}, "geometry": {"type": "Point", "coordinates": [-102.57214446830884, -76.30187764380102]}}, {"type": "Feature", "properties": {"norad_id": 31959, "name": "FENGYUN 1C DEB", "group": "fengyun-1c-debris", "lat": 59.033089525931324, "lon": -164.07414194659694, "alt_km": 740.691030517547, "timestamp": "2025-12-05T09:41:19.415056+00:00", "meta": {"OBJECT_NAME": "FENGYUN 1C DEB", "OBJECT_ID": "1999-025CNL", "EPOCH": "2025-12-03T09:15:58.403232", "MEAN_MOTION": 14.4647152, "ECCENTRICITY": 0.00265609, "INCLINATION": 98.5103, "RA_OF_ASC_NODE": 208.3494, "ARG_OF_PERICENTER": 186.1807, "MEAN_ANOMALY": 173.9061, "EPHEMERIS_TYPE": 0, "CLASSIFICATION_TYPE": "U", "NORAD_CAT_ID": 31959, "ELEMENT_SET_NO": 999, "REV_AT_EPOCH": 64218, "BSTAR": 0.0034525583, "MEAN_MOTION_DOT": 0.0001245, "MEAN_MOTION_DDOT": 0}, "tle": {"line1": "1 31959U 99025CNL 25337.38609263  .00012450  00000+0  34526-2 0  9992", "line2": "2 31959  98.5103 208.3494 0026560 186.1807 173.9061 14.46471520642187"}}, "geometry": {"type": "Point", "coordinates": [-164.07414194659694, 59.033089525931324]}}, {"type": "Feature", "properties": {"norad_id": 31964, "name": "FENGYUN 1C DEB", "group": "fengyun-1c-debris", "lat": -70.1697287534131, "lon": -102.4292215302545, "alt_km": 725.9369094723679, "timestamp": "2025-12-05T09:41:19.415066+00:00", "meta": {"OBJECT_NAME": "FENGYUN 1C DEB", "OBJECT_ID": "1999-025CNR", "EPOCH": "2025-12-03T07:07:49.497024", "MEAN_MOTION": 14.5811134, "ECCENTRICITY": 0.0028951, "INCLINATION": 98.6996, "RA_OF_ASC_NODE": 100.4929, "ARG_OF_PERICENTER": 61.9427, "MEAN_ANOMALY": 298.4693, "EPHEMERIS_TYPE": 0, "CLASSIFICATION_TYPE": "U", "NORAD_CAT_ID": 31964, "ELEMENT_SET_NO": 999, "REV_AT_EPOCH": 67372, "BSTAR": 0.0035887, "MEAN_MOTION_DOT": 0.00016609, "MEAN_MOTION_DDOT": 0}, "tle": {"line1": "1 31964U 99025CNR 25337.29710066  .00016609  00000+0  35887-2 0  9993", "line2": "2 31964  98.6996 100.4929 0028951  61.9427 298.4693 14.58111340673725"}}, "geometry": {"type": "Point", "coordinates": [-102.4292215302545, -70.1697287534131]}}, {"type": "Feature", "properties": {"norad_id": 31966, "name": "FENGYUN 1C DEB", "group": "fengyun-1c-debris", "lat": -8.686659298457911, "lon": 132.6523062005425, "alt_km": 637.2032381903682, "timestamp": "2025-12-05T09:41:19.415076+00:00", "meta": {"OBJECT_NAME": "FENGYUN 1C DEB", "OBJECT_ID": "1999-025CNT", "EPOCH": "2025-12-04T04:16:15.064032", "MEAN_MOTION": 14.67350255, "ECCENTRICITY": 0.008634, "INCLINATION": 99.0169, "RA_OF_ASC_NODE": 129.9143, "ARG_OF_PERICENTER": 301.2713, "MEAN_ANOMALY": 58.0053, "EPHEMERIS_TYPE": 0, "CLASSIFICATION_TYPE": "U", "NORAD_CAT_ID": 31966, "ELEMENT_SET_NO": 999, "REV_AT_EPOCH": 65617, "BSTAR": 0.0024973, "MEAN_MOTION_DOT": 0.00014883, "MEAN_MOTION_DDOT": 0}, "tle": {"line1": "1 31966U 99025CNT 25338.17795213  .00014883  00000+0  24973-2 0  9996", "line2": "2 31966  99.0169 129.9143 0086340 301.2713  58.0053 14.67350255656172"}}, "geometry": {"type": "Point", "coordinates": [132.6523062005425, -8.686659298457911]}}, {"type": "Feature", "properties": {"norad_id": 31972, "name": "FENGYUN 1C DEB", "group": "fengyun-1c-debris", "lat": 6.739974282129694, "lon": -157.9900052291951, "alt_km": 898.3880856268815, "timestamp": "2025-12-05T09:41:19.415086+00:00", "meta": {"OBJECT_NAME": "FENGYUN 1C DEB", "OBJECT_ID": "1999-025CNZ", "EPOCH": "2025-12-03T02:24:22.277376", "MEAN_MOTION": 14.07502652, "ECCENTRICITY": 0.00773129, "INCLINATION": 99.2135, "RA_OF_ASC_NODE": 18.5628, "ARG_OF_PERICENTER": 58.4983, "MEAN_ANOMALY": 328.6436, "EPHEMERIS_TYPE": 0, "CLASSIFICATION_TYPE": "U", "NORAD_CAT_ID": 31972, "ELEMENT_SET_NO": 999, "REV_AT_EPOCH": 94825, "BSTAR": 0.00019871825, "MEAN_MOTION_DOT": 2.98e-06, "MEAN_MOTION_DDOT": 0}, "tle": {"line1": "1 31972U 99025CNZ 25337.10025784  .00000298  00000+0  19872-3 0  9992", "line2": "2 31972  99.2135  18.5628 0077312  58.4983 328.6436 14.07502652948252"}}, "geometry": {"type": "Point", "coordinates": [-157.9900052291951, 6.739974282129694]}}, {"type": "Feature", "properties": {"norad_id": 31974, "name": "FENGYUN 1C DEB", "group": "fengyun-1c-debris", "lat": 63.60156602436601, "lon": -26.46315139150471, "alt_km": 796.310984247415, "timestamp": "2025-12-05T09:41:19.415096+00:00", "meta": {"OBJECT_NAME": "FENGYUN 1C DEB", "OBJECT_ID": "1999-025CPB", "EPOCH": "2025-12-04T11:32:51.698688", "MEAN_MOTION": 14.29356268, "ECCENTRICITY": 0.0071722, "INCLINATION": 98.3792, "RA_OF_ASC_NODE": 349.9234, "ARG_OF_PERICENTER": 327.4544, "MEAN_ANOMALY": 32.2227, "EPHEMERIS_TYPE": 0, "CLASSIFICATION_TYPE": "U", "NORAD_CAT_ID": 31974, "ELEMENT_SET_NO": 999, "REV_AT_EPOCH": 69304, "BSTAR": 0.005893, "MEAN_MOTION_DOT": 0.00015424, "MEAN_MOTION_DDOT": 0}, "tle": {"line1": "1 31974U 99025CPB 25338.48115392  .00015424  00000+0  58930-2 0  9995", "line2": "2 31974  98.3792 349.9234 0071722 327.4544  32.2227 14.29356268693042"}}, "geometry": {"type": "Point", "coordinates": [-26.46315139150471, 63.60156602436601]}}, {"type": "Feature", "properties": {"norad_id": 31978, "name": "FENGYUN 1C DEB", "group": "fengyun-1c-debris", "lat": 50.58835793911615, "lon": 125.11240497660738, "alt_km": 833.9942025390164, "timestamp": "2025-12-05T09:41:19.415106+00:00", "meta": {"OBJECT_NAME": "FENGYUN 1C DEB", "OBJECT_ID": "1999-025CPF", "EPOCH": "2025-11-24T09:11:44.769120", "MEAN_MOTION": 13.63055999, "ECCENTRICITY": 0.02632898, "INCLINATION": 98.3792, "RA_OF_ASC_NODE": 125.945, "ARG_OF_PERICENTER": 98.6092, "MEAN_ANOMALY": 264.4976, "EPHEMERIS_TYPE": 0, "CLASSIFICATION_TYPE": "U", "NORAD_CAT_ID": 31978, "ELEMENT_SET_NO": 999, "REV_AT_EPOCH": 91340, "BSTAR": 0.0013570438, "MEAN_MOTION_DOT": 1.31e-05, "MEAN_MOTION_DDOT": 0}, "tle": {"line1": "1 31978U 99025CPF 25328.38315705  .00001310  00000+0  13570-2 0  9997", "line2": "2 31978  98.3792 125.9450 0263289  98.6092 264.4976 13.63055999913403"}}, "geometry": {"type": "Point", "coordinates": [125.11240497660738, 50.58835793911615]}}, {"type": "Feature", "properties": {"norad_id": 31979, "name": "FENGYUN 1C DEB", "group": "fengyun-1c-debris", "lat": 16.714590927796422, "lon": -104.96414479491273, "alt_km": 1143.5979545519021, "timestamp": "2025-12-05T09:41:19.415116+00:00", "meta": {"OBJECT_NAME": "FENGYUN 1C DEB", "OBJECT_ID": "1999-025CPG", "EPOCH": "2025-12-02T12:28:35.492736", "MEAN_MOTION": 13.69187291, "ECCENTRICITY": 0.02646506, "INCLINATION": 99.3777, "RA_OF_ASC_NODE": 69.3826, "ARG_OF_PERICENTER": 307.5764, "MEAN_ANOMALY": 50.1611, "EPHEMERIS_TYPE": 0, "CLASSIFICATION_TYPE": "U", "NORAD_CAT_ID": 31979, "ELEMENT_SET_NO": 999, "REV_AT_EPOCH": 57772, "BSTAR": 0.003510695, "MEAN_MOTION_DOT": 3.844e-05, "MEAN_MOTION_DDOT": 0}, "tle": {"line1": "1 31979U 99025CPG 25336.51985524  .00003844  00000+0  35107-2 0  9998", "line2": "2 31979  99.3777  69.3826 0264650 307.5764  50.1611 13.69187291577721"}}, "geometry": {"type": "Point", "coordinates": [-104.96414479491273, 16.714590927796422]}}, {"type": "Feature", "properties": {"norad_id": 31980, "name": "FENGYUN 1C DEB", "group": "fengyun-1c-debris", "lat": 74.83412794146041, "lon": -83.86532031018109, "alt_km": 845.4626105881716, "timestamp": "2025-12-05T09:41:19.415126+00:00", "meta": {"OBJECT_NAME": "FENGYUN 1C DEB", "OBJECT_ID": "1999-025CPH", "EPOCH": "2025-11-07T01:33:48.122784", "MEAN_MOTION": 13.32082371, "ECCENTRICITY": 0.04288031, "INCLINATION": 97.6138, "RA_OF_ASC_NODE": 45.4675, "ARG_OF_PERICENTER": 204.355, "MEAN_ANOMALY": 153.6774, "EPHEMERIS_TYPE": 0, "CLASSIFICATION_TYPE": "U", "NORAD_CAT_ID": 31980, "ELEMENT_SET_NO": 999, "REV_AT_EPOCH": 89195, "BSTAR": 0.0011351544, "MEAN_MOTION_DOT": 8.87e-06, "MEAN_MOTION_DDOT": 0}, "tle": {"line1": "1 31980U 99025CPH 25311.06514031  .00000887  00000+0  11352-2 0  9994", "line2": "2 31980  97.6138  45.4675 0428803 204.3550 153.6774 13.32082371891957"}}, "geometry": {"type": "Point", "coordinates": [-83.86532031018109, 74.83412794146041]}}, {"type": "Feature", "properties": {"norad_id": 31984, "name": "FENGYUN 1C DEB", "group": "fengyun-1c-debris", "lat": -41.977533538091336, "lon": 156.16126631200876, "alt_km": 781.7205755959694, "timestamp": "2025-12-05T09:41:19.415136+00:00", "meta": {"OBJECT_NAME": "FENGYUN 1C DEB", "OBJECT_ID": "1999-025CPM", "EPOCH": "2025-12-02T19:53:15.322848", "MEAN_MOTION": 14.2293256, "ECCENTRICITY": 0.00625309, "INCLINATION": 98.5577, "RA_OF_ASC_NODE": 341.445, "ARG_OF_PERICENTER": 256.5759, "MEAN_ANOMALY": 102.8445, "EPHEMERIS_TYPE": 0, "CLASSIFICATION_TYPE": "U", "NORAD_CAT_ID": 31984, "ELEMENT_SET_NO": 999, "REV_AT_EPOCH": 94232, "BSTAR": 0.00049073387, "MEAN_MOTION_DOT": 1.083e-05, "MEAN_MOTION_DDOT": 0}, "tle": {"line1": "1 31984U 99025CPM 25336.82864957  .00001083  00000+0  49073-3 0  9995", "line2": "2 31984  98.5577 341.4450 0062530 256.5759 102.8445 14.22932560942322"}}, "geometry": {"type": "Point", "coordinates": [156.16126631200876, -41.977533538091336]}}]}